0 DELTA 1 DEB
1 10869U 76077CX  13283.49344400  .00000048  00000-0  68718-3 0  7685
2 10869 102.4362 289.8707 0027983 072.6551 085.6415 12.42818362685858
0 DELTA 1 DEB
1 10869U 76077CX  13285.50815435  .00000051  00000-0  70760-3 0  7695
2 10869 102.4359 291.9383 0027952 069.0037 099.7126 12.42818881686103
0 DELTA 1 DEB
1 10869U 76077CX  13287.51759878  .00000049  00000-0  69226-3 0  7700
2 10869 102.4358 294.0001 0027893 065.3909 090.1980 12.42819524686359
0 DELTA 1 DEB
1 10869U 76077CX  13289.52897948  .00000027  00000-0  53806-3 0  7718
2 10869 102.4357 296.0640 0027867 061.6997 089.4234 12.42820011686600
0 DELTA 1 DEB
1 10869U 76077CX  13291.99638748  .00000034  00000-0  58610-3 0  7720
2 10869 102.4359 298.5957 0027795 057.1154 329.0478 12.42820457686916
0 DELTA 1 DEB
1 10869U 76077CX  13294.52042878  .00000040  00000-0  63387-3 0  7730
2 10869 102.4361 301.1854 0027790 052.4772 102.0114 12.42820809687227
